[{"OBJECT_NAME":"STARLINK-36452","OBJECT_ID":"2026-005B","EPOCH":"2026-03-09T12:19:00.540480","MEAN_MOTION":15.27588633,"ECCENTRICITY":0.00033241,"INCLINATION":43.0013,"RA_OF_ASC_NODE":238.6207,"ARG_OF_PERICENTER":284.824,"MEAN_ANOMALY":75.2244,"EPHEMERIS_TYPE":0,"CLASSIFICATION_TYPE":"U","NORAD_CAT_ID":67405,"ELEMENT_SET_NO":999,"REV_AT_EPOCH":867,"BSTAR":0.0012665096,"MEAN_MOTION_DOT":0.00034766,"MEAN_MOTION_DDOT":0},{"OBJECT_NAME":"FREGAT DEB","OBJECT_ID":"2011-037LS","EPOCH":"2026-03-09T08:54:22.917312","MEAN_MOTION":11.92158719,"ECCENTRICITY":0.15355515,"INCLINATION":51.4914,"RA_OF_ASC_NODE":189.2565,"ARG_OF_PERICENTER":293.3488,"MEAN_ANOMALY":51.3308,"EPHEMERIS_TYPE":0,"CLASSIFICATION_TYPE":"U","NORAD_CAT_ID":46411,"ELEMENT_SET_NO":999,"REV_AT_EPOCH":23768,"BSTAR":0.0033127922,"MEAN_MOTION_DOT":0.00011599,"MEAN_MOTION_DDOT":0}]
